[{"OBJECT_NAME":"GONETS-M 6","OBJECT_ID":"2013-048B","EPOCH":"2026-03-10T00:04:39.287136","MEAN_MOTION":12.43027361,"ECCENTRICITY":0.00201959,"INCLINATION":82.4841,"RA_OF_ASC_NODE":46.0949,"ARG_OF_PERICENTER":100.8638,"MEAN_ANOMALY":259.4716,"EPHEMERIS_TYPE":0,"CLASSIFICATION_TYPE":"U","NORAD_CAT_ID":39250,"ELEMENT_SET_NO":999,"REV_AT_EPOCH":56662,"BSTAR":0.00011217698,"MEAN_MOTION_DOT":2.6e-7,"MEAN_MOTION_DDOT":0},{"OBJECT_NAME":"COSMOS 2192","OBJECT_ID":"1992-030F","EPOCH":"2026-03-09T23:14:28.158144","MEAN_MOTION":12.46692776,"ECCENTRICITY":0.00086142,"INCLINATION":74.0042,"RA_OF_ASC_NODE":160.5433,"ARG_OF_PERICENTER":165.7549,"MEAN_ANOMALY":308.7462,"EPHEMERIS_TYPE":0,"CLASSIFICATION_TYPE":"U","NORAD_CAT_ID":21981,"ELEMENT_SET_NO":999,"REV_AT_EPOCH":53674,"BSTAR":0.00012247338,"MEAN_MOTION_DOT":2.0e-8,"MEAN_MOTION_DDOT":0}]
